NORAD_CAT_ID,OBJECT_NAME,OBJECT_TYPE,EPOCH,MEAN_MOTION,ECCENTRICITY,INCLINATION,RA_OF_ASC_NODE,ARG_OF_PERICENTER,MEAN_ANOMALY,BSTAR,MEAN_MOTION_DOT,MEAN_MOTION_DDOT,TLE_LINE0,TLE_LINE1,TLE_LINE2,SEMIMAJOR_AXIS,PERIOD,APOGEE,PERIGEE,DECAYED
52091.0,STARLINK-3713,PAYLOAD,2023-01-07 01:50:10,15.08831454,0.0002069,53.2155,245.8523,91.0946,269.0283,-0.00020278,-3.513e-05,0.0,0 STARLINK-3713,1 52091U 22029D   23007.07651335 -.00003513  00000-0 -20278-3 0  9990,2 52091  53.2155 245.8523 0002069  91.0946 269.0283 15.08831454 45890,6917.906999999998,95.438,541.203,538.34,0.0
52091.0,STARLINK-3713,PAYLOAD,2023-01-07 22:30:11,15.08833975,0.0001416,53.2147,241.9885,95.4363,264.6791,0.00012999,1.781e-05,0.0,0 STARLINK-3713,1 52091U 22029D   23007.93763719  .00001781  00000-0  12999-3 0  9999,2 52091  53.2147 241.9885 0001416  95.4363 264.6791 15.08833975 46026,6917.899,95.438,540.743,538.784,0.0
52091.0,STARLINK-3713,PAYLOAD,2023-01-08 11:13:17,15.08834857,0.0001372,53.2144,239.6095,92.7596,267.3553,0.00014802,2.068e-05,0.0,0 STARLINK-3713,1 52091U 22029D   23008.46756002  .00002068  00000-0  14802-3 0  9999,2 52091  53.2144 239.6095 0001372  92.7596 267.3553 15.08834857 46104,6917.896,95.438,540.71,538.812,0.0
52091.0,STARLINK-3713,PAYLOAD,2023-01-08 14:24:03,15.08835847,0.0001363,53.2143,239.0147,91.8807,268.2341,0.00017146,2.442e-05,0.0,0 STARLINK-3713,1 52091U 22029D   23008.60004028  .00002442  00000-0  17146-3 0  9999,2 52091  53.2143 239.0147 0001363  91.8807 268.2341 15.08835847 46127,6917.893,95.438,540.701,538.815,0.0
52091.0,STARLINK-3713,PAYLOAD,2023-01-08 22:20:58,15.08843334,0.0001355,53.2144,237.5279,91.897,268.2177,0.00025049,3.701e-05,0.0,0 STARLINK-3713,1 52091U 22029D   23008.93123751  .00003701  00000-0  25049-3 0  9990,2 52091  53.2144 237.5279 0001355  91.8970 268.2177 15.08843334 46171,6917.87,95.437,540.673,538.798,0.0
52091.0,STARLINK-3713,PAYLOAD,2023-01-09 11:04:04,15.08835519,0.0001355,53.2139,235.1492,91.9872,268.1275,9.9516e-05,1.296e-05,0.0,0 STARLINK-3713,1 52091U 22029D   23009.46116184  .00001296  00000-0  99516-4 0  9999,2 52091  53.2139 235.1492 0001355  91.9872 268.1275 15.08835519 46251,6917.894,95.438,540.696,538.822,0.0
52091.0,STARLINK-3713,PAYLOAD,2023-01-09 15:50:14,15.08831826,0.0001323,53.2143,234.2569,92.9038,267.2105,8.4641e-05,1.059e-05,0.0,0 STARLINK-3713,1 52091U 22029D   23009.65988498  .00001059  00000-0  84641-4 0  9995,2 52091  53.2143 234.2569 0001323  92.9038 267.2105 15.08831826 46283,6917.905,95.438,540.686,538.855,0.0
52091.0,STARLINK-3713,PAYLOAD,2023-01-10 09:19:28,15.08840205,0.0001303,53.2142,230.9856,91.6273,268.4868,0.00010285,1.349e-05,0.0,0 STARLINK-3713,1 52091U 22029D   23010.38852199  .00001349  00000-0  10285-3 0  9999,2 52091  53.2142 230.9856 0001303  91.6273 268.4868 15.08840205 46391,6917.88,95.438,540.646,538.8430000000002,0.0
52091.0,STARLINK-3713,PAYLOAD,2023-01-10 14:05:37,15.08840538,0.0001327,53.2137,230.0928,90.6796,269.4349,8.2426e-05,1.024e-05,0.0,0 STARLINK-3713,1 52091U 22029D   23010.58724169  .00001024  00000-0  82426-4 0  9993,2 52091  53.2137 230.0928 0001327  90.6796 269.4349 15.08840538 46429,6917.879,95.438,540.6619999999998,538.826,0.0
52091.0,STARLINK-3713,PAYLOAD,2023-01-10 17:16:23,15.08841155,0.0001291999999999,53.2141,229.4985,92.2317,267.8823,8.6485e-05,1.089e-05,0.0,0 STARLINK-3713,1 52091U 22029D   23010.71972117  .00001089  00000-0  86485-4 0  9996,2 52091  53.2141 229.4985 0001292  92.2317 267.8823 15.08841155 46444,6917.877,95.437,540.636,538.8480000000002,0.0
52091.0,STARLINK-3713,PAYLOAD,2023-01-11 09:10:15,15.08844856,0.0001274999999999,53.2138,226.5244,91.3276,268.7862,0.00013592,1.876e-05,0.0,0 STARLINK-3713,1 52091U 22029D   23011.38211934  .00001876  00000-0  13592-3 0  9995,2 52091  53.2138 226.5244 0001275  91.3276 268.7862 15.08844856 46546,6917.866,95.437,540.613,538.849,0.0
52091.0,STARLINK-3713,PAYLOAD,2023-01-11 17:07:10,15.08843031,0.0001236,53.2139,225.0375,92.5006,267.6127,0.00015828,2.232e-05,0.0,0 STARLINK-3713,1 52091U 22029D   23011.71332014  .00002232  00000-0  15828-3 0  9996,2 52091  53.2139 225.0375 0001236  92.5006 267.6127 15.08843031 46598,6917.871,95.437,540.591,538.881,0.0
52091.0,STARLINK-3713,PAYLOAD,2023-01-11 20:17:56,15.08848102,0.0001255,53.2139,224.4427,91.1334,268.9802,6.852300000000001e-05,8.03e-06,0.0,0 STARLINK-3713,1 52091U 22029D   23011.84579687  .00000803  00000-0  68523-4 0  9992,2 52091  53.2139 224.4427 0001255  91.1334 268.9802 15.08848102 46610,6917.856,95.437,540.589,538.852,0.0
52091.0,STARLINK-3713,PAYLOAD,2023-01-12 20:08:44,15.08840845,0.0001357,53.2133,219.9815,89.7475,270.3673,5.2e-05,5.400000000000002e-06,0.0,0 STARLINK-3713,1 52091U 22029D   23012.83940092  .00000540  00000-0  52000-4 0  9995,2 52091  53.2133 219.9815 0001357  89.7475 270.3673 15.08840845 46761,6917.8780000000015,95.438,540.682,538.804,0.0
52091.0,STARLINK-3713,PAYLOAD,2023-01-13 13:37:58,15.0884169,0.0001312,53.2143,216.7105,92.6857,267.4285,6.6794e-05,7.75e-06,0.0,0 STARLINK-3713,1 52091U 22029D   23013.56804052  .00000775  00000-0  66794-4 0  9996,2 52091  53.2143 216.7105 0001312  92.6857 267.4285 15.08841690 46874,6917.875,95.437,540.648,538.8330000000001,0.0
52091.0,STARLINK-3713,PAYLOAD,2023-01-13 19:59:31,15.08839695,0.000122,53.2147,215.521,92.5465,267.5667,0.00012508,1.703e-05,0.0,0 STARLINK-3713,1 52091U 22029D   23013.83299978  .00001703  00000-0  12508-3 0  9996,2 52091  53.2147 215.5210 0001220  92.5465 267.5667 15.08839695 46916,6917.880999999999,95.438,540.59,538.9019999999999,0.0
52091.0,STARLINK-3713,PAYLOAD,2023-01-13 21:34:54,15.08846548,0.0001242,53.2149,215.2235,90.8571,269.2563,5.1945e-05,5.39e-06,0.0,0 STARLINK-3713,1 52091U 22029D   23013.89923665  .00000539  00000-0  51945-4 0  9994,2 52091  53.2149 215.2235 0001242  90.8571 269.2563 15.08846548 46925,6917.86,95.437,540.585,538.866,0.0
52091.0,STARLINK-3713,PAYLOAD,2023-01-14 19:50:18,15.08837132,0.0001242999999999,53.2147,211.0603,90.6624,269.451,6.4665e-05,7.41e-06,0.0,0 STARLINK-3713,1 52091U 22029D   23014.82660292  .00000741  00000-0  64665-4 0  9990,2 52091  53.2147 211.0603 0001243  90.6624 269.4510 15.08837132 47063,6917.889,95.438,540.614,538.894,0.0
52091.0,STARLINK-3713,PAYLOAD,2023-01-15 11:44:10,15.08835592,0.000123,53.2147,208.0867,89.5813,270.532,3.6392e-05,2.91e-06,0.0,0 STARLINK-3713,1 52091U 22029D   23015.48900600  .00000291  00000-0  36392-4 0  9999,2 52091  53.2147 208.0867 0001230  89.5813 270.5320 15.08835592 47165,6917.894,95.438,540.61,538.908,0.0
52091.0,STARLINK-3713,PAYLOAD,2023-01-15 19:41:05,15.08840345,0.0001155,53.2148,206.5999,89.4195,270.693,6.8553e-05,8.03e-06,0.0,0 STARLINK-3713,1 52091U 22029D   23015.82020196  .00000803  00000-0  68553-4 0  9993,2 52091  53.2148 206.5999 0001155  89.4195 270.6930 15.08840345 47219,6917.879,95.438,540.543,538.945,0.0
52091.0,STARLINK-3713,PAYLOAD,2023-01-16 09:59:34,15.08826494,9.5e-05,53.217,203.9247,85.131,274.9791,0.00015098,2.115e-05,0.0,0 STARLINK-3713,1 52091U 22029D   23016.41636687  .00002115  00000-0  15098-3 0  9990,2 52091  53.2170 203.9247 0000950  85.1310 274.9791 15.08826494 47306,6917.922,95.438,540.444,539.129,0.0
52091.0,STARLINK-3713,PAYLOAD,2023-01-16 13:10:20,15.08820262,8.93e-05,53.2167,203.3299,96.7284,263.381,0.00020321,2.946e-05,0.0,0 STARLINK-3713,1 52091U 22029D   23016.54884894  .00002946  00000-0  20321-3 0  9996,2 52091  53.2167 203.3299 0000893  96.7284 263.3810 15.08820262 47320,6917.941,95.439,540.423,539.188,0.0
52091.0,STARLINK-3713,PAYLOAD,2023-01-16 21:07:16,15.08837173,0.000112,53.2151,201.842,89.5828,270.5293,5.6257e-05,6.08e-06,0.0,0 STARLINK-3713,1 52091U 22029D   23016.88004681  .00000608  00000-0  56257-4 0  9992,2 52091  53.2151 201.8420 0001120  89.5828 270.5293 15.08837173 47379,6917.889,95.438,540.529,538.979,0.0
52091.0,STARLINK-3713,PAYLOAD,2023-01-17 11:25:44,15.08834923,0.0001133,53.2158,199.1664,91.4685,268.6437,7.4212e-05,8.93e-06,0.0,0 STARLINK-3713,1 52091U 22029D   23017.47621008  .00000893  00000-0  74212-4 0  9993,2 52091  53.2158 199.1664 0001133  91.4685 268.6437 15.08834923 47460,6917.896,95.438,540.545,538.977,0.0
52091.0,STARLINK-3713,PAYLOAD,2023-01-17 13:01:07,15.08836186,0.0001174,53.216,198.8689,95.0693,265.0434,5.5782e-05,6e-06,0.0,0 STARLINK-3713,1 52091U 22029D   23017.54245021  .00000600  00000-0  55782-4 0  9995,2 52091  53.2160 198.8689 0001174  95.0693 265.0434 15.08836186 47472,6917.892,95.438,540.569,538.945,0.0
52091.0,STARLINK-3713,PAYLOAD,2023-01-18 11:16:31,15.08835677,0.0001304,53.2158,194.7055,86.5135,273.6006,8.119300000000001e-05,1.004e-05,0.0,0 STARLINK-3713,1 52091U 22029D   23018.46981184  .00001004  00000-0  81193-4 0  9998,2 52091  53.2158 194.7055 0001304  86.5135 273.6006 15.08835677 47612,6917.894,95.438,540.661,538.857,0.0
52091.0,STARLINK-3713,PAYLOAD,2023-01-18 19:13:27,15.08841967,0.0001234,53.2161,193.2185,79.6101,280.503,-0.00011563,-2.128e-05,0.0,0 STARLINK-3713,1 52091U 22029D   23018.80101328 -.00002128  00000-0 -11563-3 0  9993,2 52091  53.2161 193.2185 0001234  79.6101 280.5030 15.08841967 47660,6917.874,95.437,540.5930000000001,538.886,0.0
52091.0,STARLINK-3713,PAYLOAD,2023-01-19 11:07:19,15.08836102,0.0001249,53.216,190.2446,87.2767,272.8368,5.5531e-05,5.96e-06,0.0,0 STARLINK-3713,1 52091U 22029D   23019.46341573  .00000596  00000-0  55531-4 0  9993,2 52091  53.2160 190.2446 0001249  87.2767 272.8368 15.08836102 47769,6917.892,95.438,540.621,538.893,0.0
52091.0,STARLINK-3713,PAYLOAD,2023-01-19 19:04:14,15.08845487,0.0001288,53.2158,188.758,87.0751,273.0388,0.00012519,1.705e-05,0.0,0 STARLINK-3713,1 52091U 22029D   23019.79460770  .00001705  00000-0  12519-3 0  9991,2 52091  53.2158 188.7580 0001288  87.0751 273.0388 15.08845487 47818,6917.8640000000005,95.437,540.62,538.8380000000001,0.0
